EUTELSAT QUANTUM        
1 49056U 21069B   25258.16578861  .00000110  00000+0  00000+0 0  9996
2 49056   0.0068 207.6046 0002435 359.3542 254.8077  1.00272872 15176
EUTELSAT KONNECT VHTS   
1 53765U 22110A   25257.94279434  .00000004  00000+0  00000+0 0  9997
2 53765   0.0517 104.5876 0002832  59.5820 172.0926  1.00277726  4065
EUTELSAT HOTBIRD 13F    
1 54048U 22134A   25258.23026888  .00000071  00000+0  00000+0 0  9998
2 54048   0.0612 288.7194 0002009  64.9410  96.6854  1.00270219 10614
EUTELSAT HOTBIRD 13G    
1 54225U 22146A   25258.23026888  .00000072  00000+0  00000+0 0  9999
2 54225   0.0527 235.4649 0002094 312.5472 262.3466  1.00270941  4700
EUTELSAT 10B            
1 54259U 22157A   25258.22966221  .00000052  00000+0  00000+0 0  9999
2 54259   0.0541 102.7958 0001515   5.5243 338.7718  1.00270037 10255
EUTELSAT 36D            
1 59346U 24059A   25258.23486223  .00000140  00000+0  00000+0 0  9992
2 59346   0.0185 192.1698 0000201  52.8619 229.8245  1.00269963  5398
